[{"OBJECT_NAME":"STARLINK-36867","OBJECT_ID":"2026-038Y","EPOCH":"2026-03-09T22:00:01.999584","MEAN_MOTION":15.90272814,"ECCENTRICITY":0.00012394,"INCLINATION":97.2675,"RA_OF_ASC_NODE":79.2492,"ARG_OF_PERICENTER":76.7283,"MEAN_ANOMALY":281.22,"EPHEMERIS_TYPE":0,"CLASSIFICATION_TYPE":"U","NORAD_CAT_ID":67983,"ELEMENT_SET_NO":999,"REV_AT_EPOCH":323,"BSTAR":-0.0056520447,"MEAN_MOTION_DOT":-0.01691031,"MEAN_MOTION_DDOT":0.00078313986},{"OBJECT_NAME":"CZ-6A DEB","OBJECT_ID":"2024-140AP","EPOCH":"2026-03-09T22:18:55.934784","MEAN_MOTION":15.63638112,"ECCENTRICITY":0.00667764,"INCLINATION":88.9828,"RA_OF_ASC_NODE":277.6017,"ARG_OF_PERICENTER":59.3743,"MEAN_ANOMALY":301.4087,"EPHEMERIS_TYPE":0,"CLASSIFICATION_TYPE":"U","NORAD_CAT_ID":60638,"ELEMENT_SET_NO":999,"REV_AT_EPOCH":8745,"BSTAR":0.0024220818,"MEAN_MOTION_DOT":0.00258741,"MEAN_MOTION_DDOT":0}]
